{
    "links": {
        "self": "http://www.neowsapp.com/rest/v1/neo/3134269?api_key=iIulBulltgU6a56xZRHN4H3l9WmuAYTsLGpBGhQ2"
    },
    "id": "3134269",
    "neo_reference_id": "3134269",
    "name": "(2002 RO28)",
    "designation": "2002 RO28",
    "nasa_jpl_url": "http://ssd.jpl.nasa.gov/sbdb.cgi?sstr=3134269",
    "absolute_magnitude_h": 25.4,
    "estimated_diameter": {
        "kilometers": {
            "estimated_diameter_min": 0.022108281,
            "estimated_diameter_max": 0.0494356193
        },
        "meters": {
            "estimated_diameter_min": 22.1082810359,
            "estimated_diameter_max": 49.435619262
        },
        "miles": {
            "estimated_diameter_min": 0.0137374447,
            "estimated_diameter_max": 0.0307178602
        },
        "feet": {
            "estimated_diameter_min": 72.5337327539,
            "estimated_diameter_max": 162.1903570994
        }
    },
    "is_potentially_hazardous_asteroid": false,
    "close_approach_data": [
        {
            "close_approach_date": "1954-08-07",
            "close_approach_date_full": "1954-Aug-07 11:02",
            "epoch_date_close_approach": -486046680000,
            "relative_velocity": {
                "kilometers_per_second": "15.822065224",
                "kilometers_per_hour": "56959.4348064097",
                "miles_per_hour": "35392.3776995716"
            },
            "miss_distance": {
                "astronomical": "0.356796171",
                "lunar": "138.793710519",
                "kilometers": "53375947.20575577",
                "miles": "33166275.653018826"
            },
            "orbiting_body": "Earth"
        },
        {
            "close_approach_date": "1989-11-19",
            "close_approach_date_full": "1989-Nov-19 15:11",
            "epoch_date_close_approach": 627491460000,
            "relative_velocity": {
                "kilometers_per_second": "14.522643152",
                "kilometers_per_hour": "52281.5153472288",
                "miles_per_hour": "32485.7004667267"
            },
            "miss_distance": {
                "astronomical": "0.3357732181",
                "lunar": "130.6157818409",
                "kilometers": "50230958.230805447",
                "miles": "31212070.1216992886"
            },
            "orbiting_body": "Earth"
        },
        {
            "close_approach_date": "2002-09-08",
            "close_approach_date_full": "2002-Sep-08 22:13",
            "epoch_date_close_approach": 1031523180000,
            "relative_velocity": {
                "kilometers_per_second": "6.3037095805",
                "kilometers_per_hour": "22693.3544898326",
                "miles_per_hour": "14100.7679606407"
            },
            "miss_distance": {
                "astronomical": "0.0271685973",
                "lunar": "10.5685843497",
                "kilometers": "4064364.286967751",
                "miles": "2525478.8599109238"
            },
            "orbiting_body": "Earth"
        },
        {
            "close_approach_date": "2059-11-22",
            "close_approach_date_full": "2059-Nov-22 08:22",
            "epoch_date_close_approach": 2836714920000,
            "relative_velocity": {
                "kilometers_per_second": "15.0172649819",
                "kilometers_per_hour": "54062.153934791",
                "miles_per_hour": "33592.1200379817"
            },
            "miss_distance": {
                "astronomical": "0.3512955554",
                "lunar": "136.6539710506",
                "kilometers": "52553066.828306998",
                "miles": "32654961.4964246524"
            },
            "orbiting_body": "Earth"
        },
        {
            "close_approach_date": "2177-08-24",
            "close_approach_date_full": "2177-Aug-24 04:46",
            "epoch_date_close_approach": 6552679560000,
            "relative_velocity": {
                "kilometers_per_second": "10.0996265716",
                "kilometers_per_hour": "36358.6556576588",
                "miles_per_hour": "22591.8546779492"
            },
            "miss_distance": {
                "astronomical": "0.1561778777",
                "lunar": "60.7531944253",
                "kilometers": "23363877.845040499",
                "miles": "14517640.5009729262"
            },
            "orbiting_body": "Earth"
        }
    ],
    "orbital_data": {
        "orbit_id": "9",
        "orbit_determination_date": "2017-04-06 09:14:53",
        "first_observation_date": "2002-09-05",
        "last_observation_date": "2002-12-04",
        "data_arc_in_days": 90,
        "observations_used": 22,
        "orbit_uncertainty": "7",
        "minimum_orbit_intersection": ".0222525",
        "jupiter_tisserand_invariant": "4.472",
        "epoch_osculation": "2459000.5",
        "eccentricity": ".3311046160045282",
        "semi_major_axis": "1.502249291449311",
        "inclination": "6.186566024851521",
        "ascending_node_longitude": "163.0381669682709",
        "orbital_period": "672.5296541531608",
        "perihelion_distance": "1.004847616660912",
        "perihelion_argument": "209.0514841460274",
        "aphelion_distance": "1.999650966237709",
        "perihelion_time": "2459274.162905746303",
        "mean_anomaly": "213.5103315366483",
        "mean_motion": ".5352923812011035",
        "equinox": "J2000",
        "orbit_class": {
            "orbit_class_type": "APO",
            "orbit_class_description": "Near-Earth asteroid orbits which cross the Earth’s orbit similar to that of 1862 Apollo",
            "orbit_class_range": "a (semi-major axis) > 1.0 AU; q (perihelion) < 1.017 AU"
        }
    },
    "is_sentry_object": false
}